CHUANGXIN 1-02 (CX-1-02)
1 33434U 08056B   26188.86647605 -.00000223  00000+0 -69156-4 0  9992
2 33434  98.6130 214.9265 0015524  80.3426 279.9510 14.30156662921576
STARS (KUKAI)           
1 33498U 09002G   26188.75550720  .00002261  00000+0  20754-3 0  9995
2 33498  98.1556 136.9059 0010239  99.6097 260.6280 14.95900344941558
KKS-1 (KISEKI)          
1 33499U 09002H   26188.76597752  .00001110  00000+0  14285-3 0  9997
2 33499  98.1179 111.5343 0006844 215.3247 144.7513 14.83177123939248
UK-DMC 2                
1 35683U 09041C   26188.90143126  .00000849  00000+0  13029-3 0  9998
2 35683  97.8864 323.3648 0001365  99.7181 260.4183 14.76089192909625
OCEANSAT-2              
1 35931U 09051A   26188.85900889 -.00000183  00000+0 -99553-4 0  9996
2 35931  98.2318 173.6468 0016846 174.8056 185.3288 13.99657466882228
SWISSCUBE               
1 35932U 09051B   26188.69362618  .00000823  00000+0  17197-3 0  9993
2 35932  98.4017  96.9380 0007441 139.4593 220.7163 14.62521314892153
BEESAT-1                
1 35933U 09051C   26188.71376992  .00000676  00000+0  14545-3 0  9997
2 35933  98.3945  96.5507 0005671 149.9217 210.2310 14.61753962892188
ITUPSAT1                
1 35935U 09051E   26188.72265193  .00000618  00000+0  13755-3 0  9998
2 35935  98.4027  95.7297 0007547 164.8857 195.2569 14.60471459891734
DMSP 5D-3 F18 (USA 210) 
1 35951U 09057A   26188.79007035  .00000216  00000+0  13489-3 0  9996
2 35951  98.9049 169.5155 0010773 186.5355 173.5679 14.14908093862505
PROBA-2                 
1 36037U 09059B   26188.46044608  .00000161  00000+0  48068-4 0  9996
2 36037  98.2457  11.5327 0012479 213.4919 146.5491 14.54871279884476
YAOGAN-7                
1 36110U 09069A   26188.12767835  .00000396  00000+0  61972-4 0  9995
2 36110  98.0047  73.8694 0024056 338.2842  21.7346 14.78030223892579
XIWANG-1 (HOPE-1)       
1 36122U 09072B   26188.83964259  .00000455  00000+0  13089-2 0  9999
2 36122 100.4035 142.3426 0007318 181.4555 178.6538 13.16441510795723
COSMOS 2463             
1 36519U 10017A   26188.70052321  .00000033  00000+0  19069-4 0  9992
2 36519  82.9587 234.6344 0037548  74.0023  50.6450 13.71666877810746
CARTOSAT-2B             
1 36795U 10035A   26188.84386515  .00000717  00000+0  10504-3 0  9991
2 36795  97.9939 239.2607 0012372 120.4119 239.8316 14.78612386862903
TISAT 1                 
1 36799U 10035E   26188.29850555  .00016855  00000+0  53881-3 0  9999
2 36799  98.0714 136.6429 0004078 127.2476 232.9136 15.32521446870783
YAOGAN-10               
1 36834U 10038A   26188.90829029  .00001389  00000+0  16756-3 0  9998
2 36834  97.8972 212.1470 0001663  85.9298  34.4526 14.85414257860281
SHIJIAN-6 04B (SJ-6 04B)
1 37180U 10051B   26188.84494647  .00000909  00000+0  79304-4 0  9991
2 37180  97.8742 194.4743 0007033 237.0795 122.9751 14.99379142858777
FENGYUN 3B              
1 37214U 10059A   26188.89362332 -.00000345  00000+0 -15514-3 0  9995
2 37214  98.9607 234.9948 0022949 126.2732 349.5821 14.14845006810358
COSMO-SKYMED 4          
1 37216U 10060A   26188.83190885  .00000285  00000+0  42342-4 0  9996
2 37216  97.8898  12.1329 0001493  85.8589 274.2795 14.82163444847628
O/OREOS (USA 219)       
1 37224U 10062C   26188.68827941  .00001505  00000+0  14746-3 0  9992
2 37224  71.9709  33.8970 0013508  19.9094 340.2601 14.93832571119709
RESOURCESAT-2           
1 37387U 11015A   26188.78156722  .00000042  00000+0  39547-4 0  9996
2 37387  98.7634 256.0802 0011149 192.1895 167.9014 14.21604878789105
YOUTHSAT                
1 37388U 11015B   26187.94950149  .00000155  00000+0  82770-4 0  9990
2 37388  98.3695 161.1136 0013233 285.7332 141.3050 14.25638257790454
APRIZESAT 6             
1 37793U 11044F   26188.74116514  .00000666  00000+0  10115-3 0  9991
2 37793  98.2346  99.6592 0043656  21.9354  32.6608 14.76949096800188
JUGNU                   
1 37839U 11058B   26188.05385067  .00000388  00000+0  62949-4 0  9996
2 37839  19.9587 187.7288 0018355 296.0601 101.0732 14.13781645761848
SRMSAT                  
1 37841U 11058D   26188.51395409  .00000364  00000+0  53720-4 0  9992
2 37841  19.9725 296.4406 0011878  67.5382  21.1361 14.11579854760692
